IRIDIUM 8 [+]           
1 24792U 97020A   17126.65451253 -.00000012  00000-0 -11324-4 0  9990
2 24792  86.3945 336.0639 0002000  84.2915 275.8509 14.34222531 47017
IRIDIUM 7 [+]           
1 24793U 97020B   17126.71793702  .00000075  00000-0  19826-4 0  9998
2 24793  86.3953 336.3186 0002131  87.6978 272.4461 14.34223731 47022
IRIDIUM 6 [+]           
1 24794U 97020C   17126.64174634  .00000069  00000-0  17485-4 0  9990
2 24794  86.3951 336.2819 0002176  88.0391 272.1054 14.34222516 47009
IRIDIUM 5 [+]           
1 24795U 97020D   17126.56570792  .00000065  00000-0  16190-4 0  9995
2 24795  86.3945 336.3299 0002217  86.0042 274.1407 14.34223347 47279
IRIDIUM 4 [-]           
1 24796U 97020E   17126.65931050  .00000104  00000-0  29508-4 0  9995
2 24796  86.3945 335.2483 0002103  89.1112 334.9937 14.35150982 47312
IRIDIUM 914 [-]         
1 24836U 97030A   17126.67255739  .00000089  00000-0  22358-4 0  9994
2 24836  86.3947 352.1116 0000838 130.2740 229.8532 14.38755120180878
IRIDIUM 12 [+]          
1 24837U 97030B   17126.73336358  .00000132  00000-0  40252-4 0  9991
2 24837  86.3985   7.4298 0002105  83.8720 338.0726 14.34216054 40723
IRIDIUM 10 [+]          
1 24839U 97030D   17126.71986172  .00000150  00000-0  46681-4 0  9998
2 24839  86.3985   7.4153 0002093  84.6628 333.0581 14.34215937 40999
IRIDIUM 13 [+]          
1 24840U 97030E   17126.72773084  .00000133  00000-0  40427-4 0  9990
2 24840  86.3987   7.5513 0002069  79.9450 280.1979 14.34215776 41004
IRIDIUM 16 [-]          
1 24841U 97030F   17126.76057197  .00000091  00000-0  24246-4 0  9999
2 24841  86.4066   7.3727 0004355  73.4117 286.7558 14.36706596 41370
IRIDIUM 911 [-]         
1 24842U 97030G   17126.69736038  .00000129  00000-0  31269-4 0  9995
2 24842  86.4492   8.2075 0012830 223.0156 137.0044 14.44953585 46962
IRIDIUM 15 [+]          
1 24869U 97034A   17126.78364659  .00000173  00000-0  49954-4 0  9993
2 24869  86.4223  39.4028 0002661  93.7772 266.3730 14.38634555 37711
IRIDIUM 17 [-]          
1 24870U 97034B   17126.84091029  .00000088  00000-0  23762-4 0  9994
2 24870  86.4002  37.5015 0002721  45.2498 314.8919 14.35754176 38243
IRIDIUM 920 [-]         
1 24871U 97034C   17126.80328229  .00000065  00000-0  14472-4 0  9999
2 24871  86.4013  23.8051 0013698 112.0357 248.2298 14.39467579 40139
IRIDIUM 18 [+]          
1 24872U 97034D   17126.81985899  .00000167  00000-0  52549-4 0  9993
2 24872  86.4001  39.3682 0002327  84.5262 275.6199 14.34228251 37940
IRIDIUM 921 [-]         
1 24873U 97034E   17126.92524415  .00000295  00000-0  15396-4 0  9990
2 24873  86.3925  85.4877 0008532 149.8335 210.3396 15.11285277 81584
IRIDIUM 26 [-]          
1 24903U 97043A   17126.90722219  .00000114  00000-0  33079-4 0  9992
2 24903  86.3948 272.0618 0002347  92.7296  18.8128 14.35254219 31575
IRIDIUM 25 [+]          
1 24904U 97043B   17126.55890931  .00000074  00000-0  19198-4 0  9992
2 24904  86.3937 272.8139 0002336  95.7154 264.4308 14.34214724 31658
IRIDIUM 46 [+]          
1 24905U 97043C   17126.92052543  .00000101  00000-0  29078-4 0  9992
2 24905  86.3949 272.6277 0002671  99.8630 260.2867 14.34238459 31913
IRIDIUM 23 [+]          
1 24906U 97043D   17126.43023535  .00000074  00000-0  19240-4 0  9997
2 24906  86.3950 272.9107 0002291  98.7928 284.7253 14.34214889 31851
IRIDIUM 22 [+]          
1 24907U 97043E   17126.47011209  .00000062  00000-0  14981-4 0  9991
2 24907  86.3947 273.5154 0002246  95.9253 264.2199 14.34216345 31858
DUMMY MASS 1 [-]        
1 24925U 97048A   17126.87916035  .00000066  00000-0  43968-5 0  9993
2 24925  86.3371  62.4587 0007076 168.8114 191.3268 14.85131092 65211
DUMMY MASS 2 [-]        
1 24926U 97048B   17126.91119668  .00000062  00000-0  39423-5 0  9993
2 24926  86.3370  63.5530 0007518 178.3327 181.7924 14.84899211 65062
IRIDIUM 29 [-]          
1 24944U 97051A   17126.54151285  .00000126  00000-0  37651-4 0  9998
2 24944  86.3925 304.2978 0001828  89.0482 271.0924 14.34624099 28244
IRIDIUM 32 [+]          
1 24945U 97051B   17126.84770872 -.00000041  00000-0 -21626-4 0  9994
2 24945  86.3918 304.3827 0002046  90.5670 269.5761 14.34215559 28495
IRIDIUM 33 [-]          
1 24946U 97051C   17126.93086046  .00000104  00000-0  30480-4 0  9994
2 24946  86.3840 304.0020 0008799  31.6465 328.5258 14.33550249 28114
IRIDIUM 28 [-]          
1 24948U 97051E   17126.51424953  .00000114  00000-0  32771-4 0  9999
2 24948  86.3928 303.5651 0002480  87.1465 273.0015 14.35546938 28537
IRIDIUM 30 [+]          
1 24949U 97051F   17126.91135670 -.00000167  00000-0 -66527-4 0  9995
2 24949  86.3922 304.4780 0002538  77.7814 282.3665 14.34229821 28275
IRIDIUM 31 [+]          
1 24950U 97051G   17126.90478088  .00000031  00000-0  41567-5 0  9995
2 24950  86.3922 304.4524 0002033  89.8553 270.2875 14.34216270 28573
IRIDIUM 19 [+]          
1 24965U 97056A   17126.67987561 -.00000017  00000-0 -13254-4 0  9998
2 24965  86.3946 336.0646 0002031  83.7061 276.4366 14.34222844 26605
IRIDIUM 35 [+]          
1 24966U 97056B   17126.62280192 -.00000011  00000-0 -10899-4 0  9996
2 24966  86.3945 336.0827 0002035  84.1212 276.0215 14.34222521 26299
IRIDIUM 36 [-]          
1 24967U 97056C   17126.93883541  .00000090  00000-0  24408-4 0  9994
2 24967  86.3959 335.0401 0002042  85.7878 274.3552 14.35599860 26946
IRIDIUM 37 [+]          
1 24968U 97056D   17126.73696389 -.00000015  00000-0 -12586-4 0  9998
2 24968  86.3948 336.2202 0002003  84.2228 275.9196 14.34222618 26389
IRIDIUM 34 [+]          
1 24969U 97056E   17126.68621706 -.00000014  00000-0 -12022-4 0  9998
2 24969  86.3948 336.1782 0002016  82.6780 277.4645 14.34223002 26598
IRIDIUM 43 [+]          
1 25039U 97069A   17126.81345329  .00000185  00000-0  58909-4 0  9991
2 25039  86.4022  39.3121 0002155  79.0601 281.0838 14.34223479 20380
IRIDIUM 41 [+]          
1 25040U 97069B   17126.80725258  .00000164  00000-0  51396-4 0  9995
2 25040  86.4000  39.2549 0002378  84.9408 275.2059 14.34210559 20080
IRIDIUM 40 [-]          
1 25041U 97069C   17126.89661043  .00040295 -10486-5  38921-3 0  9998
2 25041  86.3939  37.5577 0298589  75.9790 287.4456 15.26473824 20644
IRIDIUM 39 [B]          
1 25042U 97069D   17126.84658947  .00000116  00000-0  26650-4 0  9993
2 25042  86.3959  36.8500 0021251  89.9957 270.3680 14.46150628 20482
IRIDIUM 38 [-]          
1 25043U 97069E   17126.90007379  .00000093  00000-0  25057-4 0  9992
2 25043  86.4001  36.4476 0003500  74.7789 285.3795 14.36026147 20549
IRIDIUM 42 [-]          
1 25077U 97077A   17126.82518445  .00000079  00000-0  20921-4 0  9999
2 25077  86.4004  39.2023 0002444  84.7303 275.4172 14.34539898 16259
IRIDIUM 44 [-]          
1 25078U 97077B   17126.81558607  .00000112  00000-0  30550-4 0  9990
2 25078  86.4002  28.8878 0003679  68.1065 292.0524 14.38118548 17652
IRIDIUM 45 [+]          
1 25104U 97082A   17126.89843791 -.00000045  00000-0 -23119-4 0  9995
2 25104  86.3916 304.4870 0003072  84.3839 275.7707 14.34215859 14192
IRIDIUM 24 [-]          
1 25105U 97082B   17126.90171508  .00000108  00000-0  27883-4 0  9998
2 25105  86.3932 252.8728 0013690 116.9917 243.2681 14.39851961 16665
IRIDIUM 47 [+]          
1 25106U 97082C   17126.92679232  .00000072  00000-0  18531-4 0  9998
2 25106  86.3935 272.5323 0002287  98.7919 261.3536 14.34214586 14162
IRIDIUM 49 [+]          
1 25108U 97082E   17126.45738108  .00000075  00000-0  19789-4 0  9995
2 25108  86.3937 272.8303 0002280  96.7258 295.8572 14.34214557 14399
IRIDIUM 52 [+]          
1 25169U 98010A   17126.75943068  .00000143  00000-0  44023-4 0  9995
2 25169  86.3990   7.7136 0002106  83.7175 276.4260 14.34217027  5568
IRIDIUM 56 [+]          
1 25170U 98010B   17126.68333213  .00000206  00000-0  66358-4 0  9999
2 25170  86.4001   7.8526 0002342  84.6631 275.4832 14.34217965  5731
IRIDIUM 54 [+]          
1 25171U 98010C   17126.71504065  .00000141  00000-0  43151-4 0  9993
2 25171  86.3990   7.7528 0002092  83.9563 276.1871 14.34216435  6000
IRIDIUM 50 [+]          
1 25172U 98010D   17126.74675137  .00000132  00000-0  39983-4 0  9994
2 25172  86.3989   7.6960 0002026  85.6611 274.4816 14.34216586  5543
IRIDIUM 53 [+]          
1 25173U 98010E   17126.76579437  .00000124  00000-0  37260-4 0  9990
2 25173  86.3990   7.6942 0002109  83.6176 276.5260 14.34213335  5569
IRIDIUM 51 [S]          
1 25262U 98018A   17126.64179610 -.00000083  00000-0 -36571-4 0  9993
2 25262  86.3951 336.4040 0001833  92.0795 268.0610 14.34219692  4961
IRIDIUM 61 [+]          
1 25263U 98018B   17126.67352532 -.00000008  00000-0 -99916-5 0  9993
2 25263  86.3946 336.2121 0002054  84.6656 275.4774 14.34219633   912
IRIDIUM 55 [+]          
1 25272U 98019A   17126.88575319 -.00000024  00000-0 -15703-4 0  9996
2 25272  86.3917 304.2751 0002080  89.5954 270.5480 14.34214806999923
IRIDIUM 57 [-]          
1 25273U 98019B   17126.57514285  .00000086  00000-0  23618-4 0  9998
2 25273  86.3928 304.7128 0002063  91.2694 268.8738 14.34266812999897
IRIDIUM 58 [+]          
1 25274U 98019C   17126.86671566 -.00000032  00000-0 -18344-4 0  9990
2 25274  86.3924 304.7857 0002106  91.4578 268.6859 14.34216429999930
IRIDIUM 59 [+]          
1 25275U 98019D   17126.59399168 -.00000040  00000-0 -21314-4 0  9996
2 25275  86.3919 304.7550 0001964  90.4469 269.6952 14.34216046   184
IRIDIUM 60 [+]          
1 25276U 98019E   17126.87944157 -.00000040  00000-0 -21395-4 0  9991
2 25276  86.3916 304.2566 0002077  88.9557 271.1876 14.34214298999930
IRIDIUM 62 [+]          
1 25285U 98021A   17126.84096636  .00000144  00000-0  44286-4 0  9998
2 25285  86.3985 241.1653 0002343  98.5485 261.5977 14.34216841999093
IRIDIUM 63 [-]          
1 25286U 98021B   17126.94749568  .00000070  00000-0  17889-4 0  9996
2 25286  86.4013 241.5283 0002039  98.9980  13.7609 14.34656685998852
